[{"OBJECT_NAME":"NUSAT-38 (MARIA AGNESI)","OBJECT_ID":"2023-054AA","EPOCH":"2026-03-09T23:32:56.689152","MEAN_MOTION":15.43783893,"ECCENTRICITY":0.00161894,"INCLINATION":97.3125,"RA_OF_ASC_NODE":338.4726,"ARG_OF_PERICENTER":64.5493,"MEAN_ANOMALY":295.7428,"EPHEMERIS_TYPE":0,"CLASSIFICATION_TYPE":"U","NORAD_CAT_ID":56202,"ELEMENT_SET_NO":999,"REV_AT_EPOCH":16317,"BSTAR":0.00076205358,"MEAN_MOTION_DOT":0.00034663,"MEAN_MOTION_DDOT":0},{"OBJECT_NAME":"STARLINK-34379","OBJECT_ID":"2025-123M","EPOCH":"2026-03-09T16:18:28.587456","MEAN_MOTION":15.42688332,"ECCENTRICITY":0.00021053,"INCLINATION":70.0035,"RA_OF_ASC_NODE":164.9522,"ARG_OF_PERICENTER":264.6455,"MEAN_ANOMALY":95.4487,"EPHEMERIS_TYPE":0,"CLASSIFICATION_TYPE":"U","NORAD_CAT_ID":64302,"ELEMENT_SET_NO":999,"REV_AT_EPOCH":4235,"BSTAR":0.0010993501,"MEAN_MOTION_DOT":0.00048253,"MEAN_MOTION_DDOT":0}]
